12 54
OneWeb-1200 256
1 00257U 00000ABC 00001.00000000  .00000000  00000-0  00000+0 0    07
2 00257  86.4000 120.0000 0000001   0.0000 266.6667 13.16000000    08
OneWeb-1200 257
1 00258U 00000ABC 00001.00000000  .00000000  00000-0  00000+0 0    08
2 00258  86.4000 120.0000 0000001   0.0000 273.3333 13.16000000    04
OneWeb-1200 258
1 00259U 00000ABC 00001.00000000  .00000000  00000-0  00000+0 0    09
2 00259  86.4000 120.0000 0000001   0.0000 280.0000 13.16000000    01
OneWeb-1200 259
1 00260U 00000ABC 00001.00000000  .00000000  00000-0  00000+0 0    01
2 00260  86.4000 120.0000 0000001   0.0000 286.6667 13.16000000    04
OneWeb-1200 260
1 00261U 00000ABC 00001.00000000  .00000000  00000-0  00000+0 0    02
2 00261  86.4000 120.0000 0000001   0.0000 293.3333 13.16000000    00
OneWeb-1200 261
1 00262U 00000ABC 00001.00000000  .00000000  00000-0  00000+0 0    03
2 00262  86.4000 120.0000 0000001   0.0000 300.0000 13.16000000    08
OneWeb-1200 262
1 00263U 00000ABC 00001.00000000  .00000000  00000-0  00000+0 0    04
2 00263  86.4000 120.0000 0000001   0.0000 306.6667 13.16000000    00
OneWeb-1200 263
1 00264U 00000ABC 00001.00000000  .00000000  00000-0  00000+0 0    05
2 00264  86.4000 120.0000 0000001   0.0000 313.3333 13.16000000    06
OneWeb-1200 264
1 00265U 00000ABC 00001.00000000  .00000000  00000-0  00000+0 0    06
2 00265  86.4000 120.0000 0000001   0.0000 320.0000 13.16000000    03
OneWeb-1200 265
1 00266U 00000ABC 00001.00000000  .00000000  00000-0  00000+0 0    07
2 00266  86.4000 120.0000 0000001   0.0000 326.6667 13.16000000    05
OneWeb-1200 266
1 00267U 00000ABC 00001.00000000  .00000000  00000-0  00000+0 0    08
2 00267  86.4000 120.0000 0000001   0.0000 333.3333 13.16000000    01
OneWeb-1200 267
1 00268U 00000ABC 00001.00000000  .00000000  00000-0  00000+0 0    09
2 00268  86.4000 120.0000 0000001   0.0000 340.0000 13.16000000    08
OneWeb-1200 268
1 00269U 00000ABC 00001.00000000  .00000000  00000-0  00000+0 0    00
2 00269  86.4000 120.0000 0000001   0.0000 346.6667 13.16000000    00
OneWeb-1200 269
1 00270U 00000ABC 00001.00000000  .00000000  00000-0  00000+0 0    02
2 00270  86.4000 120.0000 0000001   0.0000 353.3333 13.16000000    07
OneWeb-1200 270
1 00271U 00000ABC 00001.00000000  .00000000  00000-0  00000+0 0    03
2 00271  86.4000 150.0000 0000001   0.0000   3.3333 13.16000000    03
OneWeb-1200 271
1 00272U 00000ABC 00001.00000000  .00000000  00000-0  00000+0 0    04
2 00272  86.4000 150.0000 0000001   0.0000  10.0000 13.16000000    00
OneWeb-1200 272
1 00273U 00000ABC 00001.00000000  .00000000  00000-0  00000+0 0    05
2 00273  86.4000 150.0000 0000001   0.0000  16.6667 13.16000000    02
OneWeb-1200 273
1 00274U 00000ABC 00001.00000000  .00000000  00000-0  00000+0 0    06
2 00274  86.4000 150.0000 0000001   0.0000  23.3333 13.16000000    08
OneWeb-1200 274
1 00275U 00000ABC 00001.00000000  .00000000  00000-0  00000+0 0    07
2 00275  86.4000 150.0000 0000001   0.0000  30.0000 13.16000000    05
OneWeb-1200 275
1 00276U 00000ABC 00001.00000000  .00000000  00000-0  00000+0 0    08
2 00276  86.4000 150.0000 0000001   0.0000  36.6667 13.16000000    07
OneWeb-1200 276
1 00277U 00000ABC 00001.00000000  .00000000  00000-0  00000+0 0    09
2 00277  86.4000 150.0000 0000001   0.0000  43.3333 13.16000000    03
OneWeb-1200 277
1 00278U 00000ABC 00001.00000000  .00000000  00000-0  00000+0 0    00
2 00278  86.4000 150.0000 0000001   0.0000  50.0000 13.16000000    00
OneWeb-1200 278
1 00279U 00000ABC 00001.00000000  .00000000  00000-0  00000+0 0    01
2 00279  86.4000 150.0000 0000001   0.0000  56.6667 13.16000000    02
OneWeb-1200 279
1 00280U 00000ABC 00001.00000000  .00000000  00000-0  00000+0 0    03
2 00280  86.4000 150.0000 0000001   0.0000  63.3333 13.16000000    09
OneWeb-1200 280
1 00281U 00000ABC 00001.00000000  .00000000  00000-0  00000+0 0    04
2 00281  86.4000 150.0000 0000001   0.0000  70.0000 13.16000000    06
OneWeb-1200 281
1 00282U 00000ABC 00001.00000000  .00000000  00000-0  00000+0 0    05
2 00282  86.4000 150.0000 0000001   0.0000  76.6667 13.16000000    08
OneWeb-1200 282
1 00283U 00000ABC 00001.00000000  .00000000  00000-0  00000+0 0    06
2 00283  86.4000 150.0000 0000001   0.0000  83.3333 13.16000000    04
OneWeb-1200 283
1 00284U 00000ABC 00001.00000000  .00000000  00000-0  00000+0 0    07
2 00284  86.4000 150.0000 0000001   0.0000  90.0000 13.16000000    01
OneWeb-1200 284
1 00285U 00000ABC 00001.00000000  .00000000  00000-0  00000+0 0    08
2 00285  86.4000 150.0000 0000001   0.0000  96.6667 13.16000000    03
OneWeb-1200 285
1 00286U 00000ABC 00001.00000000  .00000000  00000-0  00000+0 0    09
2 00286  86.4000 150.0000 0000001   0.0000 103.3333 13.16000000    00
OneWeb-1200 286
1 00287U 00000ABC 00001.00000000  .00000000  00000-0  00000+0 0    00
2 00287  86.4000 150.0000 0000001   0.0000 110.0000 13.16000000    07
OneWeb-1200 287
1 00288U 00000ABC 00001.00000000  .00000000  00000-0  00000+0 0    01
2 00288  86.4000 150.0000 0000001   0.0000 116.6667 13.16000000    09
OneWeb-1200 288
1 00289U 00000ABC 00001.00000000  .00000000  00000-0  00000+0 0    02
2 00289  86.4000 150.0000 0000001   0.0000 123.3333 13.16000000    05
OneWeb-1200 289
1 00290U 00000ABC 00001.00000000  .00000000  00000-0  00000+0 0    04
2 00290  86.4000 150.0000 0000001   0.0000 130.0000 13.16000000    03
OneWeb-1200 290
1 00291U 00000ABC 00001.00000000  .00000000  00000-0  00000+0 0    05
2 00291  86.4000 150.0000 0000001   0.0000 136.6667 13.16000000    05
OneWeb-1200 291
1 00292U 00000ABC 00001.00000000  .00000000  00000-0  00000+0 0    06
2 00292  86.4000 150.0000 0000001   0.0000 143.3333 13.16000000    01
OneWeb-1200 292
1 00293U 00000ABC 00001.00000000  .00000000  00000-0  00000+0 0    07
2 00293  86.4000 150.0000 0000001   0.0000 150.0000 13.16000000    08
OneWeb-1200 293
1 00294U 00000ABC 00001.00000000  .00000000  00000-0  00000+0 0    08
2 00294  86.4000 150.0000 0000001   0.0000 156.6667 13.16000000    00
OneWeb-1200 294
1 00295U 00000ABC 00001.00000000  .00000000  00000-0  00000+0 0    09
2 00295  86.4000 150.0000 0000001   0.0000 163.3333 13.16000000    06
OneWeb-1200 295
1 00296U 00000ABC 00001.00000000  .00000000  00000-0  00000+0 0    00
2 00296  86.4000 150.0000 0000001   0.0000 170.0000 13.16000000    03
OneWeb-1200 296
1 00297U 00000ABC 00001.00000000  .00000000  00000-0  00000+0 0    01
2 00297  86.4000 150.0000 0000001   0.0000 176.6667 13.16000000    05
OneWeb-1200 297
1 00298U 00000ABC 00001.00000000  .00000000  00000-0  00000+0 0    02
2 00298  86.4000 150.0000 0000001   0.0000 183.3333 13.16000000    01
OneWeb-1200 298
1 00299U 00000ABC 00001.00000000  .00000000  00000-0  00000+0 0    03
2 00299  86.4000 150.0000 0000001   0.0000 190.0000 13.16000000    08
OneWeb-1200 299
1 00300U 00000ABC 00001.00000000  .00000000  00000-0  00000+0 0    06
2 00300  86.4000 150.0000 0000001   0.0000 196.6667 13.16000000    02
OneWeb-1200 300
1 00301U 00000ABC 00001.00000000  .00000000  00000-0  00000+0 0    07
2 00301  86.4000 150.0000 0000001   0.0000 203.3333 13.16000000    09
OneWeb-1200 301
1 00302U 00000ABC 00001.00000000  .00000000  00000-0  00000+0 0    08
2 00302  86.4000 150.0000 0000001   0.0000 210.0000 13.16000000    06
OneWeb-1200 302
1 00303U 00000ABC 00001.00000000  .00000000  00000-0  00000+0 0    09
2 00303  86.4000 150.0000 0000001   0.0000 216.6667 13.16000000    08
OneWeb-1200 303
1 00304U 00000ABC 00001.00000000  .00000000  00000-0  00000+0 0    00
2 00304  86.4000 150.0000 0000001   0.0000 223.3333 13.16000000    04
OneWeb-1200 304
1 00305U 00000ABC 00001.00000000  .00000000  00000-0  00000+0 0    01
2 00305  86.4000 150.0000 0000001   0.0000 230.0000 13.16000000    01
OneWeb-1200 305
1 00306U 00000ABC 00001.00000000  .00000000  00000-0  00000+0 0    02
2 00306  86.4000 150.0000 0000001   0.0000 236.6667 13.16000000    03
OneWeb-1200 306
1 00307U 00000ABC 00001.00000000  .00000000  00000-0  00000+0 0    03
2 00307  86.4000 150.0000 0000001   0.0000 243.3333 13.16000000    09
OneWeb-1200 307
1 00308U 00000ABC 00001.00000000  .00000000  00000-0  00000+0 0    04
2 00308  86.4000 150.0000 0000001   0.0000 250.0000 13.16000000    06
OneWeb-1200 308
1 00309U 00000ABC 00001.00000000  .00000000  00000-0  00000+0 0    05
2 00309  86.4000 150.0000 0000001   0.0000 256.6667 13.16000000    08
OneWeb-1200 309
1 00310U 00000ABC 00001.00000000  .00000000  00000-0  00000+0 0    07
2 00310  86.4000 150.0000 0000001   0.0000 263.3333 13.16000000    05
OneWeb-1200 310
1 00311U 00000ABC 00001.00000000  .00000000  00000-0  00000+0 0    08
2 00311  86.4000 150.0000 0000001   0.0000 270.0000 13.16000000    02
OneWeb-1200 311
1 00312U 00000ABC 00001.00000000  .00000000  00000-0  00000+0 0    09
2 00312  86.4000 150.0000 0000001   0.0000 276.6667 13.16000000    04
OneWeb-1200 312
1 00313U 00000ABC 00001.00000000  .00000000  00000-0  00000+0 0    00
2 00313  86.4000 150.0000 0000001   0.0000 283.3333 13.16000000    00
OneWeb-1200 313
1 00314U 00000ABC 00001.00000000  .00000000  00000-0  00000+0 0    01
2 00314  86.4000 150.0000 0000001   0.0000 290.0000 13.16000000    07
OneWeb-1200 314
1 00315U 00000ABC 00001.00000000  .00000000  00000-0  00000+0 0    02
2 00315  86.4000 150.0000 0000001   0.0000 296.6667 13.16000000    09
OneWeb-1200 315
1 00316U 00000ABC 00001.00000000  .00000000  00000-0  00000+0 0    03
2 00316  86.4000 150.0000 0000001   0.0000 303.3333 13.16000000    06
OneWeb-1200 316
1 00317U 00000ABC 00001.00000000  .00000000  00000-0  00000+0 0    04
2 00317  86.4000 150.0000 0000001   0.0000 310.0000 13.16000000    03
OneWeb-1200 317
1 00318U 00000ABC 00001.00000000  .00000000  00000-0  00000+0 0    05
2 00318  86.4000 150.0000 0000001   0.0000 316.6667 13.16000000    05
OneWeb-1200 318
1 00319U 00000ABC 00001.00000000  .00000000  00000-0  00000+0 0    06
2 00319  86.4000 150.0000 0000001   0.0000 323.3333 13.16000000    01
OneWeb-1200 319
1 00320U 00000ABC 00001.00000000  .00000000  00000-0  00000+0 0    08
2 00320  86.4000 150.0000 0000001   0.0000 330.0000 13.16000000    09
